{
  "type": "FeatureCollection",
  "features": [
    {
      "type": "Feature",
      "geometry": {
        "type": "Polygon",
        "coordinates": [
          [
            [
              30.299051110839855,
              59.95649353741084
            ],
            [
              30.30093938598634,
              59.95812642459492
            ],
            [
              30.289008920288097,
              59.96345423363985
            ],
            [
              30.28772145996095,
              59.962766822549106
            ]
          ]
        ]
      },
      "properties": {
        "weekday": "Пн",
        "hour": 0,
        "congestion": "red"
      }
    },
    {
      "type": "Feature",
      "geometry": {
        "type": "Polygon",
        "coordinates": [
          [
            [
              30.364933326364707,
              59.9307364725673
            ],
            [
              30.371675377520603,
              59.93733776620662
            ],
            [
              30.373821144732517,
              59.93656381815659
            ],
            [
              30.366697197588962,
              59.93050060018648
            ]
          ]
        ]
      },
      "properties": {
        "weekday": "Пн",
        "hour": 0,
        "congestion": "red"
      }
    },
    {
      "type": "Feature",
      "geometry": {
        "type": "Polygon",
        "coordinates": [
          [
            [
              30.31202560774443,
              59.96569292855289
            ],
            [
              30.31251913420317,
              59.965982906231666
            ],
            [
              30.312753890361762,
              59.96551034871209
            ],
            [
              30.31230327924726,
              59.96518814653813
            ]
          ]
        ]
      },
      "properties": {
        "weekday": "Пн",
        "hour": 0,
        "congestion": "red"
      }
    },
    {
      "type": "Feature",
      "geometry": {
        "type": "Polygon",
        "coordinates": [
          [
            [
              30.287453840921927,
              59.98560956605498
            ],
            [
              30.287664507958425,
              59.98505141919262
            ],
            [
              30.301569079491628,
              59.985910102774774
            ],
            [
              30.301225756737722,
              59.98694049366844
            ]
          ]
        ]
      },
      "properties": {
        "weekday": "Пн",
        "hour": 0,
        "congestion": "red"
      }
    },
    {
      "type": "Feature",
      "geometry": {
        "type": "Polygon",
        "coordinates": [
          [
            [
              30.321989620123617,
              59.95255934884399
            ],
            [
              30.324221218024007,
              59.95341887521274
            ],
            [
              30.33014353552889,
              59.94688591572361
            ],
            [
              30.331945979986898,
              59.94740172249838
            ],
            [
              30.336495006476156,
              59.941254503040504
            ],
            [
              30.333576763067953,
              59.9409105689849
            ],
            [
              30.329714382086507,
              59.94151245124109
            ]
          ]
        ]
      },
      "properties": {
        "weekday": "Пн",
        "hour": 0,
        "congestion": "red"
      }
    },
    {
      "type": "Feature",
      "geometry": {
        "type": "Polygon",
        "coordinates": [
          [
            [
              30.305853450690023,
              59.93936282158691
            ],
            [
              30.30899434737688,
              59.93575113004162
            ],
            [
              30.312942559046803,
              59.9373420426453
            ],
            [
              30.3114834373427,
              59.939921738703
            ],
            [
              30.31877904586321,
              59.94284515164356
            ],
            [
              30.31749158553606,
              59.943575964606396
            ]
          ]
        ]
      },
      "properties": {
        "weekday": "Пн",
        "hour": 0,
        "congestion": "red"
      }
    },
    {
      "type": "Feature",
      "geometry": {
        "type": "Polygon",
        "coordinates": [
          [
            [
              30.278861225184272,
              59.9169815600759
            ],
            [
              30.278368214713282,
              59.915948991978574
            ],
            [
              30.28145811949844,
              59.91591672370792
            ],
            [
              30.28143666182632,
              59.91691702551091
            ]
          ]
        ]
      },
      "properties": {
        "weekday": "Пн",
        "hour": 0,
        "congestion": "red"
      }
    },
    {
      "type": "Feature",
      "geometry": {
        "type": "Polygon",
        "coordinates": [
          [
            [
              30.40559155211872,
              59.94654214683794
            ],
            [
              30.407218121596742,
              59.945940647866614
            ],
            [
              30.405458592482972,
              59.94419969110798
            ],
            [
              30.403849267074037,
              59.944307160222074
            ],
            [
              30.404428624221254,
              59.94626303723379
            ]
          ]
        ]
      },
      "properties": {
        "weekday": "Пн",
        "hour": 0,
        "congestion": "red"
      }
    },
    {
      "type": "Feature",
      "geometry": {
        "type": "Polygon",
        "coordinates": [
          [
            [
              30.40622738223783,
              59.959681394588976
            ],
            [
              30.40199257195283,
              59.95737706078901
            ],
            [
              30.403408778312695,
              59.956614323356845
            ],
            [
              30.41564229907459,
              59.95873837751515
            ],
            [
              30.415470637697638,
              59.95961922749948
            ]
          ]
        ]
      },
      "properties": {
        "weekday": "Пн",
        "hour": 0,
        "congestion": "yellow"
      }
    },
    {
      "type": "Feature",
      "geometry": {
        "type": "Polygon",
        "coordinates": [
          [
            [
              30.439011718808246,
              59.96074711097259
            ],
            [
              30.43789591985805,
              59.95964071135291
            ],
            [
              30.43044464385406,
              59.959715904730196
            ],
            [
              30.43020860946075,
              59.96044634580056
            ]
          ]
        ]
      },
      "properties": {
        "weekday": "Пн",
        "hour": 0,
        "congestion": "yellow"
      }
    },
    {
      "type": "Feature",
      "geometry": {
        "type": "Polygon",
        "coordinates": [
          [
            [
              30.3114834373427,
              59.939921738703
            ],
            [
              30.31877904586321,
              59.94284515164356
            ],
            [
              30.31749158553606,
              59.943575964606396
            ],
            [
              30.321989620123617,
              59.95255934884399
            ],
            [
              30.329714382086507,
              59.94151245124109
            ],
            [
              30.333576763067953,
              59.9409105689849
            ],
            [
              30.336178248023998,
              59.935810982768366
            ],
            [
              30.312942559046803,
              59.9373420426453
            ]
          ]
        ]
      },
      "properties": {
        "weekday": "Пн",
        "hour": 0,
        "congestion": "yellow"
      }
    },
    {
      "type": "Feature",
      "geometry": {
        "type": "Polygon",
        "coordinates": [
          [
            [
              30.333576763067953,
              59.9409105689849
            ],
            [
              30.336495006476156,
              59.941254503040504
            ],
            [
              30.33964366207124,
              59.93541861829859
            ],
            [
              30.317971413230907,
              59.92647359941969
            ],
            [
              30.302060549354565,
              59.931844125475685
            ],
            [
              30.30899434737688,
              59.93575113004162
            ],
            [
              30.312942559046803,
              59.9373420426453
            ],
            [
              30.336178248023998,
              59.935810982768366
            ]
          ]
        ]
      },
      "properties": {
        "weekday": "Пн",
        "hour": 0,
        "congestion": "yellow"
      }
    },
    {
      "type": "Feature",
      "geometry": {
        "type": "Polygon",
        "coordinates": [
          [
            [
              30.302060549354565,
              59.931844125475685
            ],
            [
              30.30899434737688,
              59.93575113004162
            ],
            [
              30.305853450690023,
              59.93936282158691
            ],
            [
              30.299482946491253,
              59.936836214591295
            ]
          ]
        ]
      },
      "properties": {
        "weekday": "Пн",
        "hour": 0,
        "congestion": "yellow"
      }
    },
    {
      "type": "Feature",
      "geometry": {
        "type": "Polygon",
        "coordinates": [
          [
            [
              30.321989620123617,
              59.95255934884399
            ],
            [
              30.307520021091506,
              59.95480994431111
            ],
            [
              30.299051110839855,
              59.95649353741084
            ],
            [
              30.30093938598634,
              59.95812642459492
            ],
            [
              30.31230327924726,
              59.96518814653813
            ],
            [
              30.324221218024007,
              59.95341887521274
            ]
          ]
        ]
      },
      "properties": {
        "weekday": "Пн",
        "hour": 0,
        "congestion": "yellow"
      }
    },
    {
      "type": "Feature",
      "geometry": {
        "type": "Polygon",
        "coordinates": [
          [
            [
              30.307520021091506,
              59.95480994431111
            ],
            [
              30.299051110839855,
              59.95649353741084
            ],
            [
              30.29137940830509,
              59.95393502721485
            ],
            [
              30.289748625224036,
              59.952817655990835
            ],
            [
              30.294683889811438,
              59.94985214201402
            ]
          ]
        ]
      },
      "properties": {
        "weekday": "Пн",
        "hour": 0,
        "congestion": "yellow"
      }
    },
    {
      "type": "Feature",
      "geometry": {
        "type": "Polygon",
        "coordinates": [
          [
            [
              30.281425013838344,
              59.966936310689185
            ],
            [
              30.272841944990688,
              59.96474536842149
            ],
            [
              30.279922976790004,
              59.9613297870466
            ],
            [
              30.28772145996095,
              59.962766822549106
            ],
            [
              30.289008920288097,
              59.96345423363985
            ]
          ]
        ]
      },
      "properties": {
        "weekday": "Пн",
        "hour": 0,
        "congestion": "yellow"
      }
    },
    {
      "type": "Feature",
      "geometry": {
        "type": "Polygon",
        "coordinates": [
          [
            [
              30.312753890361762,
              59.96551034871209
            ],
            [
              30.31251913420317,
              59.965982906231666
            ],
            [
              30.31202560774443,
              59.96569292855289
            ],
            [
              30.31230327924726,
              59.96518814653813
            ],
            [
              30.30093938598634,
              59.95812642459492
            ],
            [
              30.304507419227633,
              59.96651376887707
            ],
            [
              30.30558030283359,
              59.9728710581178
            ],
            [
              30.31575334568663,
              59.96816974889738
            ]
          ]
        ]
      },
      "properties": {
        "weekday": "Пн",
        "hour": 0,
        "congestion": "yellow"
      }
    },
    {
      "type": "Feature",
      "geometry": {
        "type": "Polygon",
        "coordinates": [
          [
            [
              30.27490452513416,
              59.95065214345992
            ],
            [
              30.28640583739002,
              59.948245212540726
            ],
            [
              30.290697202529174,
              59.94059344994674
            ],
            [
              30.238683635559966,
              59.925198601518964
            ],
            [
              30.235765392151762,
              59.93422996555544
            ],
            [
              30.26649277862637,
              59.94368875762445
            ],
            [
              30.259969646302153,
              59.95185554337972
            ],
            [
              30.26374619659512,
              59.9534886591008
            ]
          ]
        ]
      },
      "properties": {
        "weekday": "Пн",
        "hour": 0,
        "congestion": "yellow"
      }
    },
    {
      "type": "Feature",
      "geometry": {
        "type": "Polygon",
        "coordinates": [
          [
            [
              30.233518383547988,
              59.95819151248917
            ],
            [
              30.23798157934877,
              59.95733210990006
            ],
            [
              30.236264965579238,
              59.940999225305625
            ],
            [
              30.22974183325502,
              59.9395830684455
            ],
            [
              30.225621960208144,
              59.950243792227006
            ]
          ]
        ]
      },
      "properties": {
        "weekday": "Пн",
        "hour": 0,
        "congestion": "yellow"
      }
    },
    {
      "type": "Feature",
      "geometry": {
        "type": "Polygon",
        "coordinates": [
          [
            [
              30.281453887655317,
              59.92439619346406
            ],
            [
              30.28111056490141,
              59.922589581904596
            ],
            [
              30.28143666182632,
              59.91691702551091
            ],
            [
              30.296907936639343,
              59.917212179757044
            ],
            [
              30.301800285882507,
              59.918072622654655
            ],
            [
              30.29373220116571,
              59.92792310398042
            ]
          ]
        ]
      },
      "properties": {
        "weekday": "Пн",
        "hour": 0,
        "congestion": "yellow"
      }
    },
    {
      "type": "Feature",
      "geometry": {
        "type": "Polygon",
        "coordinates": [
          [
            [
              30.287453840921927,
              59.98560956605498
            ],
            [
              30.300269584961228,
              59.99755164337646
            ],
            [
              30.30799434692412,
              59.98875217666272
            ],
            [
              30.301225756737722,
              59.98694049366844
            ]
          ]
        ]
      },
      "properties": {
        "weekday": "Пн",
        "hour": 0,
        "congestion": "yellow"
      }
    },
    {
      "type": "Feature",
      "geometry": {
        "type": "Polygon",
        "coordinates": [
          [
            [
              30.231897694432547,
              60.012107214790355
            ],
            [
              30.221426350438406,
              60.0017238728222
            ],
            [
              30.274641377293875,
              59.99408445761224
            ],
            [
              30.27824626620989,
              60.00060811320199
            ]
          ]
        ]
      },
      "properties": {
        "weekday": "Пн",
        "hour": 0,
        "congestion": "yellow"
      }
    },
    {
      "type": "Feature",
      "geometry": {
        "type": "Polygon",
        "coordinates": [
          [
            [
              30.252594394007247,
              59.91648649135786
            ],
            [
              30.23748819283537,
              59.89600091837779
            ],
            [
              30.27800027779631,
              59.88256654191382
            ],
            [
              30.314937639141846,
              59.90559972463799
            ],
            [
              30.28145811949844,
              59.91591672370792
            ],
            [
              30.278368214713282,
              59.915948991978574
            ]
          ]
        ]
      },
      "properties": {
        "weekday": "Пн",
        "hour": 0,
        "congestion": "yellow"
      }
    },
    {
      "type": "Feature",
      "geometry": {
        "type": "Polygon",
        "coordinates": [
          [
            [
              30.364933326364707,
              59.9307364725673
            ],
            [
              30.366697197588962,
              59.93050060018648
            ],
            [
              30.39313595908115,
              59.929869688038394
            ],
            [
              30.392277652196384,
              59.9210522261185
            ],
            [
              30.376406828395687,
              59.91472801804603
            ],
            [
              30.3661071457785,
              59.91322207659493
            ],
            [
              30.355292479030453,
              59.92952563590022
            ],
            [
              30.33964366207124,
              59.93541861829859
            ]
          ]
        ]
      },
      "properties": {
        "weekday": "Пн",
        "hour": 0,
        "congestion": "yellow"
      }
    },
    {
      "type": "Feature",
      "geometry": {
        "type": "Polygon",
        "coordinates": [
          [
            [
              30.33964366207124,
              59.93541861829859
            ],
            [
              30.338041507546336,
              59.92597104689355
            ],
            [
              30.321390353981883,
              59.92037910042643
            ],
            [
              30.3279134863061,
              59.9102251584093
            ],
            [
              30.3661071457785,
              59.91322207659493
            ],
            [
              30.355292479030453,
              59.92952563590022
            ]
          ]
        ]
      },
      "properties": {
        "weekday": "Пн",
        "hour": 0,
        "congestion": "yellow"
      }
    },
    {
      "type": "Feature",
      "geometry": {
        "type": "Polygon",
        "coordinates": [
          [
            [
              30.34848023340217,
              59.945664392160026
            ],
            [
              30.345561989993968,
              59.942053386959856
            ],
            [
              30.36598969385139,
              59.94127954896263
            ],
            [
              30.367504779969835,
              59.9458363349788
            ]
          ]
        ]
      },
      "properties": {
        "weekday": "Пн",
        "hour": 0,
        "congestion": "yellow"
      }
    },
    {
      "type": "Feature",
      "geometry": {
        "type": "Polygon",
        "coordinates": [
          [
            [
              30.371675377520603,
              59.93733776620662
            ],
            [
              30.385185901796007,
              59.94807151047229
            ],
            [
              30.393940632020616,
              59.9446327165199
            ],
            [
              30.39462727752843,
              59.94136553185419
            ],
            [
              30.39313595908115,
              59.929869688038394
            ],
            [
              30.366697197588962,
              59.93050060018648
            ],
            [
              30.373821144732517,
              59.93656381815659
            ]
          ]
        ]
      },
      "properties": {
        "weekday": "Пн",
        "hour": 0,
        "congestion": "yellow"
      }
    },
    {
      "type": "Feature",
      "geometry": {
        "type": "Polygon",
        "coordinates": [
          [
            [
              30.403849267074037,
              59.944307160222074
            ],
            [
              30.402923670896485,
              59.941950108579924
            ],
            [
              30.409360972532227,
              59.941520199472016
            ],
            [
              30.413137522825195,
              59.94216506104361
            ],
            [
              30.41099175561328,
              59.944271521444435
            ],
            [
              30.405458592482972,
              59.94419969110798
            ]
          ]
        ]
      },
      "properties": {
        "weekday": "Пн",
        "hour": 0,
        "congestion": "yellow"
      }
    },
    {
      "type": "Feature",
      "geometry": {
        "type": "Polygon",
        "coordinates": [
          [
            [
              30.458423476063956,
              59.96663099965717
            ],
            [
              30.44383225902294,
              59.96482668815969
            ],
            [
              30.45911012157177,
              59.93967302255455
            ],
            [
              30.468379835927237,
              59.93502939033018
            ],
            [
              30.482182052226108,
              59.93468539170642
            ],
            [
              30.48836186179642,
              59.94732499755341
            ],
            [
              30.507703760360727,
              59.96734933378187
            ],
            [
              30.49414251158143,
              59.98839191752721
            ]
          ]
        ]
      },
      "properties": {
        "weekday": "Пн",
        "hour": 0,
        "congestion": "yellow"
      }
    },
    {
      "type": "Feature",
      "geometry": {
        "type": "Polygon",
        "coordinates": [
          [
            [
              30.338676044140215,
              60.05901580948039
            ],
            [
              30.314643451366777,
              60.0543888992422
            ],
            [
              30.329749652538652,
              60.04170441238044
            ],
            [
              30.41420704999959,
              60.026442289613165
            ],
            [
              30.44064290205037,
              60.03073011492106
            ],
            [
              30.43171651044881,
              60.04444741707756
            ]
          ]
        ]
      },
      "properties": {
        "weekday": "Пн",
        "hour": 0,
        "congestion": "yellow"
      }
    },
    {
      "type": "Feature",
      "geometry": {
        "type": "Polygon",
        "coordinates": [
          [
            [
              30.31524734806615,
              59.851761784214226
            ],
            [
              30.305977633710683,
              59.841069403316276
            ],
            [
              30.315467206134656,
              59.833824225869364
            ],
            [
              30.336409894122937,
              59.841069403316276
            ]
          ]
        ]
      },
      "properties": {
        "weekday": "Пн",
        "hour": 0,
        "congestion": "yellow"
      }
    },
    {
      "type": "Feature",
      "geometry": {
        "type": "Polygon",
        "coordinates": [
          [
            [
              30.473573469031265,
              59.872499961717104
            ],
            [
              30.507219098914078,
              59.87525700884548
            ],
            [
              30.525758527625015,
              59.85871129637265
            ],
            [
              30.512869832689177,
              59.84394272483815
            ],
            [
              30.463431356126677,
              59.853944515006575
            ]
          ]
        ]
      },
      "properties": {
        "weekday": "Пн",
        "hour": 0,
        "congestion": "yellow"
      }
    },
    {
      "type": "Feature",
      "geometry": {
        "type": "Polygon",
        "coordinates": [
          [
            [
              30.457055491470783,
              59.91768659581313
            ],
            [
              30.468379835927237,
              59.93502939033018
            ],
            [
              30.482182052226108,
              59.93468539170642
            ],
            [
              30.502717417740314,
              59.90236719839222
            ],
            [
              30.47387830641219,
              59.902883697702215
            ]
          ]
        ]
      },
      "properties": {
        "weekday": "Пн",
        "hour": 0,
        "congestion": "yellow"
      }
    },
    {
      "type": "Feature",
      "geometry": {
        "type": "Polygon",
        "coordinates": [
          [
            [
              30.472161692642658,
              59.902883697702215
            ],
            [
              30.44984571363875,
              59.89741870899301
            ],
            [
              30.45362226393172,
              59.89035802810924
            ],
            [
              30.492417735123126,
              59.89121916709847
            ],
            [
              30.501687449478595,
              59.902411943086236
            ]
          ]
        ]
      },
      "properties": {
        "weekday": "Пн",
        "hour": 0,
        "congestion": "yellow"
      }
    },
    {
      "type": "Feature",
      "geometry": {
        "type": "Polygon",
        "coordinates": [
          [
            [
              30.428736686252734,
              59.9418033049342
            ],
            [
              30.44006633713164,
              59.94163134119856
            ],
            [
              30.443671226047655,
              59.93466606038077
            ],
            [
              30.4295949931375,
              59.93096784767939
            ]
          ]
        ]
      },
      "properties": {
        "weekday": "Пн",
        "hour": 0,
        "congestion": "yellow"
      }
    },
    {
      "type": "Feature",
      "geometry": {
        "type": "Polygon",
        "coordinates": [
          [
            [
              30.397665977024218,
              59.9312258758993
            ],
            [
              30.413137522825195,
              59.94216506104361
            ],
            [
              30.41929531052031,
              59.93655800976199
            ],
            [
              30.422213553928515,
              59.92924760825362
            ],
            [
              30.396979331516405,
              59.92425840944029
            ]
          ]
        ]
      },
      "properties": {
        "weekday": "Пн",
        "hour": 0,
        "congestion": "yellow"
      }
    },
    {
      "type": "Feature",
      "geometry": {
        "type": "Polygon",
        "coordinates": [
          [
            [
              30.134066714077278,
              59.99954331242145
            ],
            [
              30.114407054145516,
              59.989241884034016
            ],
            [
              30.205737266785377,
              59.984089967033015
            ],
            [
              30.220843467957252,
              59.997139932664396
            ]
          ]
        ]
      },
      "properties": {
        "weekday": "Пн",
        "hour": 0,
        "congestion": "yellow"
      }
    }
  ]
}