{
  "type": "FeatureCollection",
  "features": [
    {
      "type": "Feature",
      "geometry": {
        "type": "Polygon",
        "coordinates": [
          [
            [
              30.287453840921927,
              59.98560956605498
            ],
            [
              30.287664507958425,
              59.98505141919262
            ],
            [
              30.301569079491628,
              59.985910102774774
            ],
            [
              30.301225756737722,
              59.98694049366844
            ]
          ]
        ]
      },
      "properties": {
        "weekday": "Пн",
        "hour": 0,
        "congestion": "red"
      }
    },
    {
      "type": "Feature",
      "geometry": {
        "type": "Polygon",
        "coordinates": [
          [
            [
              30.305853450690023,
              59.93936282158691
            ],
            [
              30.30899434737688,
              59.93575113004162
            ],
            [
              30.312942559046803,
              59.9373420426453
            ],
            [
              30.3114834373427,
              59.939921738703
            ],
            [
              30.31877904586321,
              59.94284515164356
            ],
            [
              30.31749158553606,
              59.943575964606396
            ]
          ]
        ]
      },
      "properties": {
        "weekday": "Пн",
        "hour": 0,
        "congestion": "red"
      }
    },
    {
      "type": "Feature",
      "geometry": {
        "type": "Polygon",
        "coordinates": [
          [
            [
              30.40622738223783,
              59.959681394588976
            ],
            [
              30.40199257195283,
              59.95737706078901
            ],
            [
              30.403408778312695,
              59.956614323356845
            ],
            [
              30.41564229907459,
              59.95873837751515
            ],
            [
              30.415470637697638,
              59.95961922749948
            ]
          ]
        ]
      },
      "properties": {
        "weekday": "Пн",
        "hour": 0,
        "congestion": "yellow"
      }
    },
    {
      "type": "Feature",
      "geometry": {
        "type": "Polygon",
        "coordinates": [
          [
            [
              30.439011718808246,
              59.96074711097259
            ],
            [
              30.43789591985805,
              59.95964071135291
            ],
            [
              30.43044464385406,
              59.959715904730196
            ],
            [
              30.43020860946075,
              59.96044634580056
            ]
          ]
        ]
      },
      "properties": {
        "weekday": "Пн",
        "hour": 0,
        "congestion": "yellow"
      }
    },
    {
      "type": "Feature",
      "geometry": {
        "type": "Polygon",
        "coordinates": [
          [
            [
              30.3114834373427,
              59.939921738703
            ],
            [
              30.31877904586321,
              59.94284515164356
            ],
            [
              30.31749158553606,
              59.943575964606396
            ],
            [
              30.321989620123617,
              59.95255934884399
            ],
            [
              30.329714382086507,
              59.94151245124109
            ],
            [
              30.333576763067953,
              59.9409105689849
            ],
            [
              30.336178248023998,
              59.935810982768366
            ],
            [
              30.312942559046803,
              59.9373420426453
            ]
          ]
        ]
      },
      "properties": {
        "weekday": "Пн",
        "hour": 0,
        "congestion": "yellow"
      }
    },
    {
      "type": "Feature",
      "geometry": {
        "type": "Polygon",
        "coordinates": [
          [
            [
              30.333576763067953,
              59.9409105689849
            ],
            [
              30.336495006476156,
              59.941254503040504
            ],
            [
              30.33964366207124,
              59.93541861829859
            ],
            [
              30.317971413230907,
              59.92647359941969
            ],
            [
              30.302060549354565,
              59.931844125475685
            ],
            [
              30.30899434737688,
              59.93575113004162
            ],
            [
              30.312942559046803,
              59.9373420426453
            ],
            [
              30.336178248023998,
              59.935810982768366
            ]
          ]
        ]
      },
      "properties": {
        "weekday": "Пн",
        "hour": 0,
        "congestion": "yellow"
      }
    },
    {
      "type": "Feature",
      "geometry": {
        "type": "Polygon",
        "coordinates": [
          [
            [
              30.302060549354565,
              59.931844125475685
            ],
            [
              30.30899434737688,
              59.93575113004162
            ],
            [
              30.305853450690023,
              59.93936282158691
            ],
            [
              30.299482946491253,
              59.936836214591295
            ]
          ]
        ]
      },
      "properties": {
        "weekday": "Пн",
        "hour": 0,
        "congestion": "yellow"
      }
    },
    {
      "type": "Feature",
      "geometry": {
        "type": "Polygon",
        "coordinates": [
          [
            [
              30.321989620123617,
              59.95255934884399
            ],
            [
              30.307520021091506,
              59.95480994431111
            ],
            [
              30.299051110839855,
              59.95649353741084
            ],
            [
              30.30093938598634,
              59.95812642459492
            ],
            [
              30.31230327924726,
              59.96518814653813
            ],
            [
              30.324221218024007,
              59.95341887521274
            ]
          ]
        ]
      },
      "properties": {
        "weekday": "Пн",
        "hour": 0,
        "congestion": "yellow"
      }
    },
    {
      "type": "Feature",
      "geometry": {
        "type": "Polygon",
        "coordinates": [
          [
            [
              30.307520021091506,
              59.95480994431111
            ],
            [
              30.299051110839855,
              59.95649353741084
            ],
            [
              30.29137940830509,
              59.95393502721485
            ],
            [
              30.289748625224036,
              59.952817655990835
            ],
            [
              30.294683889811438,
              59.94985214201402
            ]
          ]
        ]
      },
      "properties": {
        "weekday": "Пн",
        "hour": 0,
        "congestion": "yellow"
      }
    },
    {
      "type": "Feature",
      "geometry": {
        "type": "Polygon",
        "coordinates": [
          [
            [
              30.233518383547988,
              59.95819151248917
            ],
            [
              30.23798157934877,
              59.95733210990006
            ],
            [
              30.236264965579238,
              59.940999225305625
            ],
            [
              30.22974183325502,
              59.9395830684455
            ],
            [
              30.225621960208144,
              59.950243792227006
            ]
          ]
        ]
      },
      "properties": {
        "weekday": "Пн",
        "hour": 0,
        "congestion": "yellow"
      }
    },
    {
      "type": "Feature",
      "geometry": {
        "type": "Polygon",
        "coordinates": [
          [
            [
              30.281453887655317,
              59.92439619346406
            ],
            [
              30.28111056490141,
              59.922589581904596
            ],
            [
              30.28143666182632,
              59.91691702551091
            ],
            [
              30.296907936639343,
              59.917212179757044
            ],
            [
              30.301800285882507,
              59.918072622654655
            ],
            [
              30.29373220116571,
              59.92792310398042
            ]
          ]
        ]
      },
      "properties": {
        "weekday": "Пн",
        "hour": 0,
        "congestion": "yellow"
      }
    },
    {
      "type": "Feature",
      "geometry": {
        "type": "Polygon",
        "coordinates": [
          [
            [
              30.287453840921927,
              59.98560956605498
            ],
            [
              30.300269584961228,
              59.99755164337646
            ],
            [
              30.30799434692412,
              59.98875217666272
            ],
            [
              30.301225756737722,
              59.98694049366844
            ]
          ]
        ]
      },
      "properties": {
        "weekday": "Пн",
        "hour": 0,
        "congestion": "yellow"
      }
    },
    {
      "type": "Feature",
      "geometry": {
        "type": "Polygon",
        "coordinates": [
          [
            [
              30.231897694432547,
              60.012107214790355
            ],
            [
              30.221426350438406,
              60.0017238728222
            ],
            [
              30.274641377293875,
              59.99408445761224
            ],
            [
              30.27824626620989,
              60.00060811320199
            ]
          ]
        ]
      },
      "properties": {
        "weekday": "Пн",
        "hour": 0,
        "congestion": "yellow"
      }
    },
    {
      "type": "Feature",
      "geometry": {
        "type": "Polygon",
        "coordinates": [
          [
            [
              30.364933326364707,
              59.9307364725673
            ],
            [
              30.366697197588962,
              59.93050060018648
            ],
            [
              30.39313595908115,
              59.929869688038394
            ],
            [
              30.392277652196384,
              59.9210522261185
            ],
            [
              30.376406828395687,
              59.91472801804603
            ],
            [
              30.3661071457785,
              59.91322207659493
            ],
            [
              30.355292479030453,
              59.92952563590022
            ],
            [
              30.33964366207124,
              59.93541861829859
            ]
          ]
        ]
      },
      "properties": {
        "weekday": "Пн",
        "hour": 0,
        "congestion": "yellow"
      }
    },
    {
      "type": "Feature",
      "geometry": {
        "type": "Polygon",
        "coordinates": [
          [
            [
              30.34848023340217,
              59.945664392160026
            ],
            [
              30.345561989993968,
              59.942053386959856
            ],
            [
              30.36598969385139,
              59.94127954896263
            ],
            [
              30.367504779969835,
              59.9458363349788
            ]
          ]
        ]
      },
      "properties": {
        "weekday": "Пн",
        "hour": 0,
        "congestion": "yellow"
      }
    },
    {
      "type": "Feature",
      "geometry": {
        "type": "Polygon",
        "coordinates": [
          [
            [
              30.403849267074037,
              59.944307160222074
            ],
            [
              30.402923670896485,
              59.941950108579924
            ],
            [
              30.409360972532227,
              59.941520199472016
            ],
            [
              30.413137522825195,
              59.94216506104361
            ],
            [
              30.41099175561328,
              59.944271521444435
            ],
            [
              30.405458592482972,
              59.94419969110798
            ]
          ]
        ]
      },
      "properties": {
        "weekday": "Пн",
        "hour": 0,
        "congestion": "yellow"
      }
    },
    {
      "type": "Feature",
      "geometry": {
        "type": "Polygon",
        "coordinates": [
          [
            [
              30.458423476063956,
              59.96663099965717
            ],
            [
              30.44383225902294,
              59.96482668815969
            ],
            [
              30.45911012157177,
              59.93967302255455
            ],
            [
              30.468379835927237,
              59.93502939033018
            ],
            [
              30.482182052226108,
              59.93468539170642
            ],
            [
              30.48836186179642,
              59.94732499755341
            ],
            [
              30.507703760360727,
              59.96734933378187
            ],
            [
              30.49414251158143,
              59.98839191752721
            ]
          ]
        ]
      },
      "properties": {
        "weekday": "Пн",
        "hour": 0,
        "congestion": "yellow"
      }
    },
    {
      "type": "Feature",
      "geometry": {
        "type": "Polygon",
        "coordinates": [
          [
            [
              30.338676044140215,
              60.05901580948039
            ],
            [
              30.314643451366777,
              60.0543888992422
            ],
            [
              30.329749652538652,
              60.04170441238044
            ],
            [
              30.41420704999959,
              60.026442289613165
            ],
            [
              30.44064290205037,
              60.03073011492106
            ],
            [
              30.43171651044881,
              60.04444741707756
            ]
          ]
        ]
      },
      "properties": {
        "weekday": "Пн",
        "hour": 0,
        "congestion": "yellow"
      }
    },
    {
      "type": "Feature",
      "geometry": {
        "type": "Polygon",
        "coordinates": [
          [
            [
              30.31524734806615,
              59.851761784214226
            ],
            [
              30.305977633710683,
              59.841069403316276
            ],
            [
              30.315467206134656,
              59.833824225869364
            ],
            [
              30.336409894122937,
              59.841069403316276
            ]
          ]
        ]
      },
      "properties": {
        "weekday": "Пн",
        "hour": 0,
        "congestion": "yellow"
      }
    },
    {
      "type": "Feature",
      "geometry": {
        "type": "Polygon",
        "coordinates": [
          [
            [
              30.473573469031265,
              59.872499961717104
            ],
            [
              30.507219098914078,
              59.87525700884548
            ],
            [
              30.525758527625015,
              59.85871129637265
            ],
            [
              30.512869832689177,
              59.84394272483815
            ],
            [
              30.463431356126677,
              59.853944515006575
            ]
          ]
        ]
      },
      "properties": {
        "weekday": "Пн",
        "hour": 0,
        "congestion": "yellow"
      }
    },
    {
      "type": "Feature",
      "geometry": {
        "type": "Polygon",
        "coordinates": [
          [
            [
              30.457055491470783,
              59.91768659581313
            ],
            [
              30.468379835927237,
              59.93502939033018
            ],
            [
              30.482182052226108,
              59.93468539170642
            ],
            [
              30.502717417740314,
              59.90236719839222
            ],
            [
              30.47387830641219,
              59.902883697702215
            ]
          ]
        ]
      },
      "properties": {
        "weekday": "Пн",
        "hour": 0,
        "congestion": "yellow"
      }
    },
    {
      "type": "Feature",
      "geometry": {
        "type": "Polygon",
        "coordinates": [
          [
            [
              30.472161692642658,
              59.902883697702215
            ],
            [
              30.44984571363875,
              59.89741870899301
            ],
            [
              30.45362226393172,
              59.89035802810924
            ],
            [
              30.492417735123126,
              59.89121916709847
            ],
            [
              30.501687449478595,
              59.902411943086236
            ]
          ]
        ]
      },
      "properties": {
        "weekday": "Пн",
        "hour": 0,
        "congestion": "yellow"
      }
    },
    {
      "type": "Feature",
      "geometry": {
        "type": "Polygon",
        "coordinates": [
          [
            [
              30.428736686252734,
              59.9418033049342
            ],
            [
              30.44006633713164,
              59.94163134119856
            ],
            [
              30.443671226047655,
              59.93466606038077
            ],
            [
              30.4295949931375,
              59.93096784767939
            ]
          ]
        ]
      },
      "properties": {
        "weekday": "Пн",
        "hour": 0,
        "congestion": "yellow"
      }
    },
    {
      "type": "Feature",
      "geometry": {
        "type": "Polygon",
        "coordinates": [
          [
            [
              30.134066714077278,
              59.99954331242145
            ],
            [
              30.114407054145516,
              59.989241884034016
            ],
            [
              30.205737266785377,
              59.984089967033015
            ],
            [
              30.220843467957252,
              59.997139932664396
            ]
          ]
        ]
      },
      "properties": {
        "weekday": "Пн",
        "hour": 0,
        "congestion": "yellow"
      }
    },
    {
      "type": "Feature",
      "geometry": {
        "type": "Polygon",
        "coordinates": [
          [
            [
              30.32637996630274,
              59.91027469337129
            ],
            [
              30.314937639141846,
              59.90559972463799
            ],
            [
              30.27800027779631,
              59.88256654191382
            ],
            [
              30.28860102244471,
              59.87341912302463
            ],
            [
              30.33529291697596,
              59.874280700993204
            ],
            [
              30.339412790022834,
              59.889785286991376
            ],
            [
              30.372371774397834,
              59.9045940237026
            ]
          ]
        ]
      },
      "properties": {
        "weekday": "Пн",
        "hour": 0,
        "congestion": "yellow"
      }
    },
    {
      "type": "Feature",
      "geometry": {
        "type": "Polygon",
        "coordinates": [
          [
            [
              30.364933326364707,
              59.9307364725673
            ],
            [
              30.366697197588962,
              59.93050060018648
            ],
            [
              30.377382342910778,
              59.93888314799819
            ],
            [
              30.373949115371715,
              59.94011921995655
            ]
          ]
        ]
      },
      "properties": {
        "congestion": "red"
      }
    },
    {
      "type": "Feature",
      "geometry": {
        "type": "Polygon",
        "coordinates": [
          [
            [
              30.366697197588962,
              59.93050060018648
            ],
            [
              30.39313595908115,
              59.929869688038394
            ],
            [
              30.39953738937379,
              59.94072111657701
            ],
            [
              30.399709050750744,
              59.94570783972307
            ],
            [
              30.385185901796007,
              59.94807151047229
            ],
            [
              30.371470754241955,
              59.94373043580116
            ],
            [
              30.373949115371715,
              59.94011921995655
            ],
            [
              30.377382342910778,
              59.93888314799819
            ]
          ]
        ]
      },
      "properties": {
        "congestion": "yellow"
      }
    },
    {
      "type": "Feature",
      "geometry": {
        "type": "Polygon",
        "coordinates": [
          [
            [
              30.355292479030453,
              59.92952563590022
            ],
            [
              30.3661071457785,
              59.91322207659493
            ],
            [
              30.32637996630274,
              59.91027469337129
            ],
            [
              30.352693357761694,
              59.91638396482784
            ]
          ]
        ]
      },
      "properties": {
        "congestion": "yellow"
      }
    },
    {
      "type": "Feature",
      "geometry": {
        "type": "Polygon",
        "coordinates": [
          [
            [
              30.23553315823608,
              59.9354643283122
            ],
            [
              30.235361496859127,
              59.9278526247364
            ],
            [
              30.258707444124752,
              59.927938642443245
            ],
            [
              30.257934967928463,
              59.93176620461886
            ]
          ]
        ]
      },
      "properties": {
        "congestion": "yellow"
      }
    },
    {
      "type": "Feature",
      "geometry": {
        "type": "Polygon",
        "coordinates": [
          [
            [
              30.27490452513416,
              59.95065214345992
            ],
            [
              30.268320481234127,
              59.94947905366519
            ],
            [
              30.280336777620846,
              59.93761421068295
            ],
            [
              30.296902100496823,
              59.9426443908378
            ]
          ]
        ]
      },
      "properties": {
        "congestion": "yellow"
      }
    },
    {
      "type": "Feature",
      "geometry": {
        "type": "Polygon",
        "coordinates": [
          [
            [
              30.324221218024007,
              59.95341887521274
            ],
            [
              30.321989620123617,
              59.95255934884399
            ],
            [
              30.329714382086507,
              59.94151245124109
            ],
            [
              30.333576763067953,
              59.9409105689849
            ],
            [
              30.336495006476156,
              59.941254503040504
            ],
            [
              30.34326447108856,
              59.942235985869516
            ],
            [
              30.338179002796323,
              59.954915687806015
            ],
            [
              30.33551825145355,
              59.95878310593954
            ]
          ]
        ]
      },
      "properties": {
        "congestion": "yellow"
      }
    },
    {
      "type": "Feature",
      "geometry": {
        "type": "Polygon",
        "coordinates": [
          [
            [
              30.27800027779631,
              59.88256654191382
            ],
            [
              30.274428258930357,
              59.89478380982607
            ],
            [
              30.249537359272153,
              59.89805558336842
            ],
            [
              30.259493719135435,
              59.90933212204727
            ],
            [
              30.30206574061981,
              59.910623084447415
            ],
            [
              30.314937639141846,
              59.90559972463799
            ]
          ]
        ]
      },
      "properties": {
        "congestion": "yellow"
      }
    },
    {
      "type": "Feature",
      "geometry": {
        "type": "Polygon",
        "coordinates": [
          [
            [
              30.37355214843751,
              59.98311266534223
            ],
            [
              30.383165185546886,
              59.971088051717395
            ],
            [
              30.41475087890626,
              59.96438672968344
            ],
            [
              30.442903344726574,
              59.97143167271174
            ]
          ]
        ]
      },
      "properties": {
        "congestion": "red"
      }
    },
    {
      "type": "Feature",
      "geometry": {
        "type": "Polygon",
        "coordinates": [
          [
            [
              30.37355214843751,
              59.98311266534223
            ],
            [
              30.330161376271718,
              59.98311266534223
            ],
            [
              30.358346359630104,
              59.96490226412942
            ],
            [
              30.383165185546886,
              59.971088051717395
            ]
          ]
        ]
      },
      "properties": {
        "congestion": "yellow"
      }
    }
  ]
}