{
  "type": "FeatureCollection",
  "features": [
    {
      "type": "Feature",
      "geometry": {
        "type": "Polygon",
        "coordinates": [
          [
            [
              30.35440325065744,
              59.95192554060387
            ],
            [
              30.412424796067597,
              59.95759811118997
            ],
            [
              30.42684435173166,
              59.94504839562359
            ],
            [
              30.40171092724208,
              59.931633858710626
            ],
            [
              30.38797801708583,
              59.946251998991436
            ],
            [
              30.35227245067958,
              59.92956960214078
            ],
            [
              30.299744069331922,
              59.94229713812014
            ]
          ]
        ]
      },
      "properties": {
        "weekday": "Пн",
        "hour": 2,
        "congestion": "red"
      }
    },
    {
      "type": "Feature",
      "geometry": {
        "type": "Polygon",
        "coordinates": [
          [
            [
              30.35227245067958,
              59.92956960214078
            ],
            [
              30.299744069331922,
              59.94229713812014
            ],
            [
              30.364288747066297,
              59.912620640902965
            ],
            [
              30.388493001216688,
              59.91829993737826
            ],
            [
              30.40171092724208,
              59.931633858710626
            ],
            [
              30.38797801708583,
              59.946251998991436
            ]
          ]
        ]
      },
      "properties": {
        "weekday": "Пн",
        "hour": 2,
        "congestion": "yellow"
      }
    }
  ]
}